OBJECT_NAME,OBJECT_ID,EPOCH,MEAN_MOTION,ECCENTRICITY,INCLINATION,RA_OF_ASC_NODE,ARG_OF_PERICENTER,MEAN_ANOMALY,EPHEMERIS_TYPE,CLASSIFICATION_TYPE,NORAD_CAT_ID,ELEMENT_SET_NO,REV_AT_EPOCH,BSTAR,MEAN_MOTION_DOT,MEAN_MOTION_DDOT
ASTRA 1M,2008-057A,2026-06-28T14:15:48.339936,1.00270158,.00049985,0.3251,82.6501,27.8493,39.5295,0,U,33436,999,4585,0,.132E-5,0
EUTELSAT HOTBIRD 13C,2008-065A,2026-06-28T12:13:09.669216,1.00272731,.00035166,2.9783,79.0652,15.8757,314.6485,0,U,33459,999,4745,0,-.274E-5,0
EXPRESS-AM44,2009-007A,2026-06-28T14:07:06.913344,1.00272022,.00043258,3.4927,78.2623,10.8530,28.3293,0,U,33595,999,5240,0,-.81E-6,0
NSS-9,2009-008A,2026-06-28T13:42:56.723040,1.00271203,.00024733,1.2903,82.5624,4.7891,218.1186,0,U,33749,999,6363,0,.82E-6,0
TELSTAR 11N,2009-009A,2026-06-28T12:16:54.310080,1.00268714,.00027754,0.0280,27.4135,71.4455,324.4251,0,U,34111,999,4635,0,0,0
WGS F2 (USA 204),2009-017A,2026-06-28T04:10:38.371008,1.00259163,.00004856,0.0183,10.2745,8.9333,17.2393,0,U,34713,999,4572,0,.81E-6,0
SES-7 (PROTOSTAR 2),2009-027A,2026-06-28T15:46:44.517216,1.00270933,.000028,0.0411,68.7290,344.9972,207.9478,0,U,34941,999,6274,0,-.333E-5,0
MEASAT-3A,2009-032A,2026-06-28T12:18:38.437632,1.00272076,.00033102,0.0289,326.2536,122.6190,172.4039,0,U,35362,999,814,0,-.99E-6,0
GOES 14,2009-033A,2026-06-28T13:06:10.088640,1.00107544,.00022845,1.7185,82.9168,21.0240,144.4333,0,U,35491,999,670,0,-.318E-5,0
FM-5,2009-034A,2026-06-28T13:45:38.971008,1.00270430,.0001124,0.0319,282.3582,68.8151,45.7451,0,U,35493,999,4675,0,-.188E-5,0
TERRESTAR-1,2009-035A,2026-06-28T13:38:32.153280,1.00271535,.00025959,5.1835,48.7904,41.5436,279.9543,0,U,35496,999,6224,0,-.49E-6,0
ASIASAT 5,2009-042A,2026-06-28T07:48:14.749344,1.00275064,.00012879,0.0166,49.4592,29.1488,55.3755,0,U,35696,999,6182,0,-.296E-5,0
JCSAT-12 (JCSAT-RA),2009-044A,2026-06-28T13:05:10.184928,1.00270694,.00002753,0.0138,359.9210,201.7883,43.2565,0,U,35755,999,6172,0,-.316E-5,0
OPTUS D3,2009-044B,2026-06-28T14:54:14.189184,1.00270543,.000331,0.8783,268.5952,192.2063,195.6037,0,U,35756,999,6168,0,-.133E-5,0
NIMIQ 5,2009-050A,2026-06-28T14:58:46.661952,1.00271843,.00030575,0.0344,276.9107,171.0199,340.7829,0,U,35873,999,6145,0,-.245E-5,0
AMAZONAS 2,2009-054A,2026-06-28T13:49:38.589312,1.00270423,.00035648,1.8441,82.9159,17.0448,312.1208,0,U,35942,999,6129,0,-.249E-5,0
COMSATBW-1,2009-054B,2026-06-28T12:45:32.334336,1.00271925,.00031889,0.0634,132.8439,325.9449,72.2295,0,U,35943,999,6142,0,.36E-6,0
NSS-12,2009-058A,2026-06-28T12:43:47.501760,1.00271080,.00050364,0.0724,276.8934,149.4272,98.2468,0,U,36032,999,6103,0,.83E-6,0
THOR 6,2009-058B,2026-06-28T07:19:23.474784,1.00269543,.00021496,0.0142,18.5315,88.8613,278.0268,0,U,36033,999,6111,0,0,0
INTELSAT 14 (IS-14),2009-064A,2026-06-28T14:39:40.666176,1.00271865,.00027048,0.0126,45.3569,53.0339,353.2379,0,U,36097,999,6072,0,-.262E-5,0
EUTELSAT 36B,2009-065A,2026-06-28T14:24:39.990240,1.00273648,.00058585,0.5192,81.2435,14.8860,87.2210,0,U,36101,999,6082,0,.123E-5,0
INTELSAT 15 (IS-15),2009-067A,2026-06-28T02:35:50.930304,1.00271734,.00026222,0.0168,51.0973,50.5770,298.6460,0,U,36106,999,4133,0,-.173E-5,0
WGS F3 (USA 211),2009-068A,2026-06-28T10:07:53.151744,1.00271530,.00005732,0.3136,85.8091,2.8142,209.8761,0,U,36108,999,4670,0,.75E-6,0
DIRECTV 12,2009-075A,2026-06-28T13:49:16.785408,1.00272905,.00004463,0.0081,79.0998,32.9896,269.1771,0,U,36131,999,4666,0,-.92E-6,0
BEIDOU-2 G1,2010-001A,2026-06-28T16:03:04.682880,1.00272819,.00022634,4.3200,60.3774,309.0589,288.5745,0,U,36287,999,6028,0,-.272E-5,0
SDO,2010-005A,2026-06-28T06:07:38.633664,1.00270682,.00015156,34.6736,86.1745,48.6117,131.2733,0,U,36395,999,6017,0,-.95E-6,0
INTELSAT 16 (IS-16),2010-006A,2026-06-28T12:05:47.874912,1.00271819,.00024611,0.0168,44.3407,67.3174,270.1912,0,U,36397,999,5976,0,-.233E-5,0
EWS-G2 (GOES 15),2010-008A,2026-06-28T12:45:39.822624,1.00268076,.0005379,1.3082,82.6918,43.7185,45.1609,0,U,36411,999,5975,0,.31E-6,0
ECHOSTAR 14,2010-010A,2026-06-28T13:36:17.368416,1.00271095,.00024965,0.0197,293.6655,163.9216,264.2461,0,U,36499,999,4666,0,.12E-6,0
SES-1,2010-016A,2026-06-28T04:13:38.747424,1.00272007,.00030015,0.0261,307.8710,144.5021,146.3114,0,U,36516,999,5914,0,-.103E-5,0
ASTRA 3B,2010-021A,2026-06-28T14:16:55.732800,1.00269359,.00042171,1.4984,83.4217,10.9977,60.0014,0,U,36581,999,5898,0,.147E-5,0
COMSATBW-2,2010-021B,2026-06-28T14:14:03.508224,1.00269156,.00026301,0.0091,123.9118,340.1294,39.4053,0,U,36582,999,5907,0,.1E-5,0
