ASTRA 1M                
1 33436U 08057A   26179.59430949  .00000132  00000+0  00000+0 0  9991
2 33436   0.3251  82.6501 0004998  27.8493  39.5295  1.00270158 45856
EUTELSAT HOTBIRD 13C    
1 33459U 08065A   26179.50913969 -.00000274  00000+0  00000+0 0  9992
2 33459   2.9783  79.0652 0003516  15.8757 314.6485  1.00272731 47456
EXPRESS-AM44            
1 33595U 09007A   26179.58827446 -.00000081  00000+0  00000+0 0  9998
2 33595   3.4927  78.2623 0004325  10.8530  28.3293  1.00272022 52405
NSS-9                   
1 33749U 09008A   26179.57148985  .00000082  00000+0  00000+0 0  9993
2 33749   1.2903  82.5624 0002473   4.7891 218.1186  1.00271203 63636
TELSTAR 11N             
1 34111U 09009A   26179.51173970  .00000000  00000+0  00000+0 0  9994
2 34111   0.0280  27.4135 0002775  71.4455 324.4251  1.00268714 46359
WGS F2 (USA 204)        
1 34713U 09017A   26179.17405522  .00000081  00000+0  00000+0 0  9993
2 34713   0.0183  10.2745 0000485   8.9333  17.2393  1.00259163 45724
SES-7 (PROTOSTAR 2)     
1 34941U 09027A   26179.65745969 -.00000333  00000+0  00000+0 0  9993
2 34941   0.0411  68.7290 0000280 344.9972 207.9478  1.00270933 62740
MEASAT-3A               
1 35362U 09032A   26179.51294488 -.00000099  00000+0  00000+0 0  9996
2 35362   0.0289 326.2536 0003310 122.6190 172.4039  1.00272076  8149
GOES 14                 
1 35491U 09033A   26179.54595010 -.00000318  00000+0  00000+0 0  9992
2 35491   1.7185  82.9168 0002284  21.0240 144.4333  1.00107544  6702
FM-5                    
1 35493U 09034A   26179.57336772 -.00000188  00000+0  00000+0 0  9991
2 35493   0.0319 282.3582 0001124  68.8151  45.7451  1.00270430 46751
TERRESTAR-1             
1 35496U 09035A   26179.56842770 -.00000049  00000+0  00000+0 0  9990
2 35496   5.1835  48.7904 0002595  41.5436 279.9543  1.00271535 62244
ASIASAT 5               
1 35696U 09042A   26179.32517071 -.00000296  00000+0  00000+0 0  9991
2 35696   0.0166  49.4592 0001287  29.1488  55.3755  1.00275064 61829
JCSAT-12 (JCSAT-RA)     
1 35755U 09044A   26179.54525677 -.00000316  00000+0  00000+0 0  9997
2 35755   0.0138 359.9210 0000275 201.7883  43.2565  1.00270694 61721
OPTUS D3                
1 35756U 09044B   26179.62099756 -.00000133  00000+0  00000+0 0  9998
2 35756   0.8783 268.5952 0003310 192.2063 195.6037  1.00270543 61685
NIMIQ 5                 
1 35873U 09050A   26179.62415118 -.00000245  00000+0  00000+0 0  9993
2 35873   0.0344 276.9107 0003057 171.0199 340.7829  1.00271843 61459
AMAZONAS 2              
1 35942U 09054A   26179.57614108 -.00000249  00000+0  00000+0 0  9992
2 35942   1.8441  82.9159 0003564  17.0448 312.1208  1.00270423 61293
COMSATBW-1              
1 35943U 09054B   26179.53162424  .00000036  00000+0  00000+0 0  9991
2 35943   0.0634 132.8439 0003188 325.9449  72.2295  1.00271925 61422
NSS-12                  
1 36032U 09058A   26179.53041090  .00000083  00000+0  00000+0 0  9992
2 36032   0.0724 276.8934 0005036 149.4272  98.2468  1.00271080 61037
THOR 6                  
1 36033U 09058B   26179.30513281  .00000000  00000+0  00000+0 0  9993
2 36033   0.0142  18.5315 0002149  88.8613 278.0268  1.00269543 61119
INTELSAT 14 (IS-14)     
1 36097U 09064A   26179.61088734 -.00000262  00000+0  00000+0 0  9995
2 36097   0.0126  45.3569 0002704  53.0339 353.2379  1.00271865 60721
EUTELSAT 36B            
1 36101U 09065A   26179.60046285  .00000123  00000+0  00000+0 0  9991
2 36101   0.5192  81.2435 0005858  14.8860  87.2210  1.00273648 60823
INTELSAT 15 (IS-15)     
1 36106U 09067A   26179.10822836 -.00000173  00000+0  00000+0 0  9993
2 36106   0.0168  51.0973 0002622  50.5770 298.6460  1.00271734 41335
WGS F3 (USA 211)        
1 36108U 09068A   26179.42214296  .00000075  00000+0  00000+0 0  9996
2 36108   0.3136  85.8091 0000573   2.8142 209.8761  1.00271530 46705
DIRECTV 12              
1 36131U 09075A   26179.57588872 -.00000092  00000+0  00000+0 0  9990
2 36131   0.0081  79.0998 0000446  32.9896 269.1771  1.00272905 46669
BEIDOU-2 G1             
1 36287U 10001A   26179.66880420 -.00000272  00000+0  00000+0 0  9997
2 36287   4.3200  60.3774 0002263 309.0589 288.5745  1.00272819 60286
SDO                     
1 36395U 10005A   26179.25530826 -.00000095  00000+0  00000+0 0  9991
2 36395  34.6736  86.1745 0001515  48.6117 131.2733  1.00270682 60177
INTELSAT 16 (IS-16)     
1 36397U 10006A   26179.50402633 -.00000233  00000+0  00000+0 0  9990
2 36397   0.0168  44.3407 0002461  67.3174 270.1912  1.00271819 59766
EWS-G2 (GOES 15)        
1 36411U 10008A   26179.53171091  .00000031  00000+0  00000+0 0  9998
2 36411   1.3082  82.6918 0005379  43.7185  45.1609  1.00268076 59758
ECHOSTAR 14             
1 36499U 10010A   26179.56686769  .00000012  00000+0  00000+0 0  9992
2 36499   0.0197 293.6655 0002496 163.9216 264.2461  1.00271095 46667
SES-1                   
1 36516U 10016A   26179.17614291 -.00000103  00000+0  00000+0 0  9998
2 36516   0.0261 307.8710 0003001 144.5021 146.3114  1.00272007 59147
ASTRA 3B                
1 36581U 10021A   26179.59508950  .00000147  00000+0  00000+0 0  9993
2 36581   1.4984  83.4217 0004217  10.9977  60.0014  1.00269359 58989
COMSATBW-2              
1 36582U 10021B   26179.59309616  .00000100  00000+0  00000+0 0  9991
2 36582   0.0091 123.9118 0002630 340.1294  39.4053  1.00269156 59070
